{
  "type": "FeatureCollection",
  "features": [
    {
      "type": "Feature",
      "properties": {
        "name": "ROYAN 2L",
        "points": [
          "ROYAN",
          "ETPAR"
        ]
      },
      "geometry": {
        "type": "LineString",
        "coordinates": [
          [
            -1.0366666666666668,
            45.666666666666664
          ],
          [
            -0.8617777777777778,
            45.19591666666666
          ]
        ]
      }
    },
    {
      "type": "Feature",
      "properties": {
        "name": "CNA 2L",
        "points": [
          "CNA",
          "BD011",
          "BD002",
          "VAGNA"
        ]
      },
      "geometry": {
        "type": "LineString",
        "coordinates": [
          [
            -0.31163888888888885,
            45.659555555555556
          ],
          [
            -0.2817222222222222,
            45.476888888888894
          ],
          [
            -0.2316666666666667,
            45.16855555555556
          ],
          [
            -0.33727777777777773,
            45.09536111111111
          ]
        ]
      }
    },
    {
      "type": "Feature",
      "properties": {
        "name": "LMG 2L",
        "points": [
          "LMG",
          "MARRE",
          "CHALA",
          "BD001",
          "BD002",
          "VAGNA"
        ]
      },
      "geometry": {
        "type": "LineString",
        "coordinates": [
          [
            1.0255833333333333,
            45.815916666666666
          ],
          [
            0.2836111111111111,
            45.434999999999995
          ],
          [
            0.13083333333333333,
            45.35527777777778
          ],
          [
            -0.02225,
            45.276694444444445
          ],
          [
            -0.2316666666666667,
            45.16855555555556
          ],
          [
            -0.33727777777777773,
            45.09536111111111
          ]
        ]
      }
    },
    {
      "type": "Feature",
      "properties": {
        "name": "VELIN 2L",
        "points": [
          "VELIN",
          "LIBRU"
        ]
      },
      "geometry": {
        "type": "LineString",
        "coordinates": [
          [
            0.15555555555555556,
            44.980000000000004
          ],
          [
            -0.18991666666666665,
            44.88966666666666
          ]
        ]
      }
    },
    {
      "type": "Feature",
      "properties": {
        "name": "MIRBA 2L",
        "points": [
          "MIRBA",
          "LIBRU"
        ]
      },
      "geometry": {
        "type": "LineString",
        "coordinates": [
          [
            0.3269444444444444,
            44.723888888888894
          ],
          [
            -0.18991666666666665,
            44.88966666666666
          ]
        ]
      }
    },
    {
      "type": "Feature",
      "properties": {
        "name": "VAVIX 2L",
        "points": [
          "VAVIX",
          "DIRAX"
        ]
      },
      "geometry": {
        "type": "LineString",
        "coordinates": [
          [
            -0.6940833333333334,
            44.27777777777778
          ],
          [
            -0.4543888888888889,
            44.552138888888884
          ]
        ]
      }
    },
    {
      "type": "Feature",
      "properties": {
        "name": "INA ETPAR Z05",
        "points": [
          "ETPAR",
          "BD055",
          "BD053",
          "BD051",
          "BDN05",
          "ID05Z"
        ]
      },
      "geometry": {
        "type": "LineString",
        "coordinates": [
          [
            -0.8617777777777778,
            45.19591666666666
          ],
          [
            -0.8583333333333333,
            44.916666666666664
          ],
          [
            -0.9541944444444443,
            44.843500000000006
          ],
          [
            -0.9681666666666666,
            44.79527777777778
          ],
          [
            -0.91825,
            44.75405555555555
          ],
          [
            -0.8706111111111111,
            44.71963888888889
          ]
        ]
      }
    },
    {
      "type": "Feature",
      "properties": {
        "name": "INA VAGNA1 Z05",
        "points": [
          "VAGNA",
          "BD057",
          "BD055",
          "BD053",
          "BD051",
          "BDN05",
          "ID05Z"
        ]
      },
      "geometry": {
        "type": "LineString",
        "coordinates": [
          [
            -0.33727777777777773,
            45.09536111111111
          ],
          [
            -0.5916666666666667,
            45.11666666666667
          ],
          [
            -0.8583333333333333,
            44.916666666666664
          ],
          [
            -0.9541944444444443,
            44.843500000000006
          ],
          [
            -0.9681666666666666,
            44.79527777777778
          ],
          [
            -0.91825,
            44.75405555555555
          ],
          [
            -0.8706111111111111,
            44.71963888888889
          ]
        ]
      }
    },
    {
      "type": "Feature",
      "properties": {
        "name": "INA VAGNA2 Z05",
        "points": [
          "VAGNA",
          "BD058",
          "BD056",
          "BD054",
          "BD052",
          "BDS05",
          "ID05Z"
        ]
      },
      "geometry": {
        "type": "LineString",
        "coordinates": [
          [
            -0.33727777777777773,
            45.09536111111111
          ],
          [
            -0.3588611111111111,
            44.89491666666667
          ],
          [
            -0.6151666666666666,
            44.70019444444445
          ],
          [
            -0.6790555555555555,
            44.651444444444444
          ],
          [
            -0.7884444444444444,
            44.66038888888889
          ],
          [
            -0.8229722222222222,
            44.68522222222222
          ],
          [
            -0.8706111111111111,
            44.71963888888889
          ]
        ]
      }
    },
    {
      "type": "Feature",
      "properties": {
        "name": "INA LIBRU Z05",
        "points": [
          "LIBRU",
          "BD058",
          "BD056",
          "BD054",
          "BD052",
          "BDS05",
          "ID05Z"
        ]
      },
      "geometry": {
        "type": "LineString",
        "coordinates": [
          [
            -0.18991666666666665,
            44.88966666666666
          ],
          [
            -0.3588611111111111,
            44.89491666666667
          ],
          [
            -0.6151666666666666,
            44.70019444444445
          ],
          [
            -0.6790555555555555,
            44.651444444444444
          ],
          [
            -0.7884444444444444,
            44.66038888888889
          ],
          [
            -0.8229722222222222,
            44.68522222222222
          ],
          [
            -0.8706111111111111,
            44.71963888888889
          ]
        ]
      }
    },
    {
      "type": "Feature",
      "properties": {
        "name": "INA DIRAX Z05",
        "points": [
          "DIRAX",
          "BD054",
          "BD052",
          "BDS05",
          "ID05Z"
        ]
      },
      "geometry": {
        "type": "LineString",
        "coordinates": [
          [
            -0.4543888888888889,
            44.552138888888884
          ],
          [
            -0.6790555555555555,
            44.651444444444444
          ],
          [
            -0.7884444444444444,
            44.66038888888889
          ],
          [
            -0.8229722222222222,
            44.68522222222222
          ],
          [
            -0.8706111111111111,
            44.71963888888889
          ]
        ]
      }
    }
  ]
}