{
  "type": "FeatureCollection",
  "features": [
    {
      "type": "Feature",
      "properties": {
        "name": "ROYAN 2L",
        "points": [
          "ROYAN",
          "ETPAR"
        ]
      },
      "geometry": {
        "type": "LineString",
        "coordinates": [
          [
            -1.0366666666666668,
            45.666666666666664
          ],
          [
            -0.8617777777777778,
            45.19591666666666
          ]
        ]
      }
    },
    {
      "type": "Feature",
      "properties": {
        "name": "CNA 2L",
        "points": [
          "CNA",
          "BD011",
          "BD002",
          "VAGNA"
        ]
      },
      "geometry": {
        "type": "LineString",
        "coordinates": [
          [
            -0.31163888888888885,
            45.659555555555556
          ],
          [
            -0.2817222222222222,
            45.476888888888894
          ],
          [
            -0.2316666666666667,
            45.16855555555556
          ],
          [
            -0.33727777777777773,
            45.09536111111111
          ]
        ]
      }
    },
    {
      "type": "Feature",
      "properties": {
        "name": "LMG 2L",
        "points": [
          "LMG",
          "MARRE",
          "CHALA",
          "BD001",
          "BD002",
          "VAGNA"
        ]
      },
      "geometry": {
        "type": "LineString",
        "coordinates": [
          [
            1.0255833333333333,
            45.815916666666666
          ],
          [
            0.2836111111111111,
            45.434999999999995
          ],
          [
            0.13083333333333333,
            45.35527777777778
          ],
          [
            -0.02225,
            45.276694444444445
          ],
          [
            -0.2316666666666667,
            45.16855555555556
          ],
          [
            -0.33727777777777773,
            45.09536111111111
          ]
        ]
      }
    },
    {
      "type": "Feature",
      "properties": {
        "name": "VELIN 2L",
        "points": [
          "VELIN",
          "LIBRU"
        ]
      },
      "geometry": {
        "type": "LineString",
        "coordinates": [
          [
            0.15555555555555556,
            44.980000000000004
          ],
          [
            -0.18991666666666665,
            44.88966666666666
          ]
        ]
      }
    },
    {
      "type": "Feature",
      "properties": {
        "name": "MIRBA 2L",
        "points": [
          "MIRBA",
          "LIBRU"
        ]
      },
      "geometry": {
        "type": "LineString",
        "coordinates": [
          [
            0.3269444444444444,
            44.723888888888894
          ],
          [
            -0.18991666666666665,
            44.88966666666666
          ]
        ]
      }
    },
    {
      "type": "Feature",
      "properties": {
        "name": "VAVIX 2L",
        "points": [
          "VAVIX",
          "DIRAX"
        ]
      },
      "geometry": {
        "type": "LineString",
        "coordinates": [
          [
            -0.6940833333333334,
            44.27777777777778
          ],
          [
            -0.4543888888888889,
            44.552138888888884
          ]
        ]
      }
    },
    {
      "type": "Feature",
      "properties": {
        "name": "INA ETPAR 29",
        "points": [
          "ETPAR",
          "BD291",
          "IBD29"
        ]
      },
      "geometry": {
        "type": "LineString",
        "coordinates": [
          [
            -0.8617777777777778,
            45.19591666666666
          ],
          [
            -0.3718611111111111,
            44.85227777777778
          ],
          [
            -0.40900000000000003,
            44.76391666666667
          ]
        ]
      }
    },
    {
      "type": "Feature",
      "properties": {
        "name": "INA VAGNA 29",
        "points": [
          "VAGNA",
          "BD291",
          "IBD29"
        ]
      },
      "geometry": {
        "type": "LineString",
        "coordinates": [
          [
            -0.33727777777777773,
            45.09536111111111
          ],
          [
            -0.3718611111111111,
            44.85227777777778
          ],
          [
            -0.40900000000000003,
            44.76391666666667
          ]
        ]
      }
    },
    {
      "type": "Feature",
      "properties": {
        "name": "INA DIRAX 29",
        "points": [
          "DIRAX",
          "BD292",
          "IDB29"
        ]
      },
      "geometry": {
        "type": "LineString",
        "coordinates": [
          [
            -0.4543888888888889,
            44.552138888888884
          ],
          [
            -0.43022222222222223,
            44.665083333333335
          ]
        ]
      }
    }
  ]
}