{
  "type": "FeatureCollection",
  "features": [
    {
      "type": "Feature",
      "properties": {
        "name": "ROYAN 6P",
        "points": [
          "BD230",
          "BD923",
          "BD927",
          "ROYAN"
        ]
      },
      "geometry": {
        "type": "LineString",
        "coordinates": [
          [
            -0.7695277777777778,
            44.79072222222222
          ],
          [
            -0.8210555555555555,
            44.93230555555555
          ],
          [
            -0.8290277777777778,
            45.11694444444444
          ],
          [
            -1.0366666666666668,
            45.666666666666664
          ]
        ]
      }
    },
    {
      "type": "Feature",
      "properties": {
        "name": "CNA 6P",
        "points": [
          "BD230",
          "BD923",
          "ROVFU",
          "CNA"
        ]
      },
      "geometry": {
        "type": "LineString",
        "coordinates": [
          [
            -0.7695277777777778,
            44.79072222222222
          ],
          [
            -0.8210555555555555,
            44.93230555555555
          ],
          [
            -0.55,
            45.1475
          ],
          [
            -0.31163888888888885,
            45.659555555555556
          ]
        ]
      }
    },
    {
      "type": "Feature",
      "properties": {
        "name": "OBLOC 6P",
        "points": [
          "BD423",
          "BD427",
          "OBLOC"
        ]
      },
      "geometry": {
        "type": "LineString",
        "coordinates": [
          [
            -0.7862222222222223,
            44.77902777777778
          ],
          [
            -0.6483888888888889,
            44.66030555555555
          ],
          [
            -0.15291666666666667,
            44.67680555555555
          ]
        ]
      }
    },
    {
      "type": "Feature",
      "properties": {
        "name": "VAVIX 6P",
        "points": [
          "BD423",
          "BD425",
          "VAVIX"
        ]
      },
      "geometry": {
        "type": "LineString",
        "coordinates": [
          [
            -0.7862222222222223,
            44.77902777777778
          ],
          [
            -0.7791666666666667,
            44.65555555555555
          ],
          [
            -0.6940833333333334,
            44.27777777777778
          ]
        ]
      }
    }
  ]
}