{
  "type": "FeatureCollection",
  "features": [    
    {
      "type": "Feature",
      "properties": {
        "name": "ROYAN 6Q",
        "points": [
          "BD905",
          "BD955",
          "ROYAN"
        ]
      },
      "geometry": {
        "type": "LineString",
        "coordinates": [
          [
            -0.56225,
            44.93522222222222
          ],
          [
            -0.5554166666666667,
            45.05311111111111
          ],
          [
            -1.0366666666666668,
            45.666666666666664
          ]
        ]
      }
    },
    {
      "type": "Feature",
      "properties": {
        "name": "CNA 6Q",
        "points": [
          "BD905",
          "BD955",
          "ROVFU",
          "CNA"
        ]
      },
      "geometry": {
        "type": "LineString",
        "coordinates": [
          [
            -0.56225,
            44.93522222222222
          ],
          [
            -0.5554166666666667,
            45.05311111111111
          ],
          [
            -0.55,
            45.1475
          ],
          [
            -0.31163888888888885,
            45.659555555555556
          ]
        ]
      }
    },
    {
      "type": "Feature",
      "properties": {
        "name": "OBLOC 6Q",
        "points": [
          "BD905",
          "BD961",
          "BD963",
          "OBLOC"
        ]
      },
      "geometry": {
        "type": "LineString",
        "coordinates": [
          [
            -0.56225,
            44.93522222222222
          ],
          [
            -0.44327777777777777,
            44.83216666666667
          ],
          [
            -0.3173333333333333,
            44.72252777777778
          ],
          [
            -0.15291666666666667,
            44.67680555555555
          ]
        ]
      }
    },
    {
      "type": "Feature",
      "properties": {
        "name": "VAVIX 6Q",
        "points": [
          "BD905",
          "BD961",
          "VAVIX"
        ]
      },
      "geometry": {
        "type": "LineString",
        "coordinates": [
          [
            -0.56225,
            44.93522222222222
          ],
          [
            -0.44327777777777777,
            44.83216666666667
          ],
          [
            -0.6940833333333334,
            44.27777777777778
          ]
        ]
      }
    }
  ]
}